STARLINK-1541           
1 46052U 20055AB  23332.09828379  .00031714  00000+0  21377-2 0  9995
2 46052  53.0544 254.2682 0001657 120.6071 239.5081 15.06412650183027
STARLINK-1543           
1 46053U 20055AC  23332.10194690  .00001067  00000+0  90510-4 0  9995
2 46053  53.0551 254.2521 0001743 120.7154 239.4007 15.06416703183027
STARLINK-1548           
1 46054U 20055AD  23332.10931825 -.00000041  00000+0  16128-4 0  9990
2 46054  53.0561 254.2173 0001800  74.6409 285.4779 15.06426834183007
STARLINK-1554           
1 46055U 20055AE  23332.02824419  .00011930  00000+0  81859-3 0  9992
2 46055  53.0554 254.5851 0001981 122.6695 237.4485 15.06393479182993
STARLINK-1564           
1 46058U 20055AH  23332.19411736  .00031763  00000+0  21393-2 0  9999
2 46058  53.0547 253.8372 0001397  94.4964 265.6185 15.06440981183020
STARLINK-1570           
1 46059U 20055AJ  23332.06880767  .00033327  00000+0  22451-2 0  9994
2 46059  53.0548 254.4008 0001537  67.8417 292.2735 15.06409901183000
STARLINK-1572           
1 46060U 20055AK  23332.19778785  .00035316  00000+0  23741-2 0  9999
2 46060  53.0550 253.8247 0001425  87.2977 272.8175 15.06460189183025
STARLINK-1573           
1 46061U 20055AL  23332.18921939  .00039647  00000+0  27810-2 0  9992
2 46061  53.0554 253.8479 0001434  95.2626 264.8526 15.04820800183026
STARLINK-1574           
1 46062U 20055AM  23332.02456184  .00044503  00000+0  29850-2 0  9994
2 46062  53.0535 254.5967 0001416  62.2375 297.8757 15.06434172182993
STARLINK-1577           
1 46063U 20055AN  23332.08722585  .00024822  00000+0  16790-2 0  9993
2 46063  53.0562 254.3195 0001545 113.4536 246.6616 15.06408630183005
STARLINK-1583           
1 46064U 20055AP  23332.18672725  .00008289  00000+0  57441-3 0  9993
2 46064  53.0556 253.8701 0001667  91.7045 268.4135 15.06417988183020
STARLINK-1525           
1 46066U 20055AR  23332.11855447  .00010962  00000+0  75347-3 0  9998
2 46066  53.0547 234.1724 0001837  70.0368 290.0819 15.06409417183282
STARLINK-1529           
1 46067U 20055AS  23332.13420209  .00008626  00000+0  56585-4 0  9993
2 46067  53.0477 222.8408 0001536 128.0278 232.0880 15.76754170183435
STARLINK-1532           
1 46068U 20055AT  23332.03012040  .00003388  00000+0  24619-3 0  9995
2 46068  53.0549 234.8769 0001945 118.8837 241.2347 15.06403769183260
STARLINK-1533           
1 46069U 20055AU  23331.94899578  .00004094  00000+0  29355-3 0  9991
2 46069  53.0541 234.9359 0001720 124.6661 235.4490 15.06406206183263
STARLINK-1536           
1 46070U 20055AV  23332.02914265  .00024878  00000+0  16812-2 0  9999
2 46070  53.0542 234.5685 0001513  76.0973 284.0184 15.06443758183274
STARLINK-1538           
1 46071U 20055AW  23332.11486849  .00024231  00000+0  16388-2 0  9993
2 46071  53.0540 234.1899 0001623 120.7251 239.3898 15.06427712183282
STARLINK-1539           
1 46072U 20055AX  23331.94066765  .00004805  00000+0  34106-3 0  9999
2 46072  53.0535 234.9754 0002112 112.2639 247.8574 15.06420390183252
STARLINK-1542           
1 46073U 20055AY  23332.02271508  .00023019  00000+0  15576-2 0  9990
2 46073  53.0560 234.6053 0001515  89.4916 270.6247 15.06437751183271
STARLINK-1549           
1 46074U 20055AZ  23332.00796571  .00001332  00000+0  10827-3 0  9990
2 46074  53.0538 234.6739 0001596  67.8840 292.2318 15.06415725183279
STARLINK-1551           
1 46075U 20055BA  23331.96741738  .00004546  00000+0  32381-3 0  9999
2 46075  53.0548 234.8526 0002057 127.7526 232.3649 15.06412845183268
STARLINK-1552           
1 46076U 20055BB  23331.99321939  .00001060  00000+0  90041-4 0  9996
2 46076  53.0544 234.7388 0001657 110.5606 249.5561 15.06416860183268
STARLINK-1559           
1 46077U 20055BC  23332.04113406  .00000558  00000+0  56378-4 0  9998
2 46077  53.0553 234.5247 0001718 117.2811 242.8354 15.06410522183277
STARLINK-1563           
1 46078U 20055BD  23332.01901545  .00020546  00000+0  13908-2 0  9994
2 46078  53.0553 234.6238 0001996  85.6109 274.5108 15.06489750183273
STARLINK-1566           
1 46079U 20055BE  23332.01165246  .00001176  00000+0  97814-4 0  9993
2 46079  53.0534 234.6573 0001664 116.8723 243.2436 15.06413198183276
STARLINK-1568           
1 46080U 20055BF  23331.97017096  .00019177  00000+0  13027-2 0  9990
2 46080  53.0546 234.8323 0001186 105.8629 254.2491 15.06402584183267
STARLINK-1571           
1 46081U 20055BG  23332.00429350  .00026052  00000+0  17603-2 0  9990
2 46081  53.0551 234.6878 0001941  70.0736 290.0462 15.06423455183264
STARLINK-1578           
1 46082U 20055BH  23331.96005780  .00043725  00000+0  29329-2 0  9996
2 46082  53.0542 234.8874 0001478  87.8162 272.2997 15.06441842183262
STARLINK-1579           
1 46083U 20055BJ  23331.99691995  .00004778  00000+0  33937-3 0  9995
2 46083  53.0552 234.7279 0002090  65.6287 294.4920 15.06409467183264
GLOBAL-8                
1 46089U 20055BQ  23331.89822706  .00082240  00000+0  87335-3 0  9997
2 46089  52.9863 194.5666 0003782 110.9292 249.2126 15.63370776192657
