OBJECT_NAME,OBJECT_ID,EPOCH,MEAN_MOTION,ECCENTRICITY,INCLINATION,RA_OF_ASC_NODE,ARG_OF_PERICENTER,MEAN_ANOMALY,EPHEMERIS_TYPE,CLASSIFICATION_TYPE,NORAD_CAT_ID,ELEMENT_SET_NO,REV_AT_EPOCH,BSTAR,MEAN_MOTION_DOT,MEAN_MOTION_DDOT
STARLINK-1541,2020-055AB,2023-11-28T02:21:31.719456,15.06412650,.0001657,53.0544,254.2682,120.6071,239.5081,0,U,46052,999,18302,.21377E-2,.31714E-3,0
STARLINK-1543,2020-055AC,2023-11-28T02:26:48.212160,15.06416703,.0001743,53.0551,254.2521,120.7154,239.4007,0,U,46053,999,18302,.9051E-4,.1067E-4,0
STARLINK-1548,2020-055AD,2023-11-28T02:37:25.096800,15.06426834,.00018,53.0561,254.2173,74.6409,285.4779,0,U,46054,999,18300,.16128E-4,-.41E-6,0
STARLINK-1554,2020-055AE,2023-11-28T00:40:40.298016,15.06393479,.0001981,53.0554,254.5851,122.6695,237.4485,0,U,46055,999,18299,.81859E-3,.1193E-3,0
STARLINK-1564,2020-055AH,2023-11-28T04:39:31.739904,15.06440981,.0001397,53.0547,253.8372,94.4964,265.6185,0,U,46058,999,18302,.21393E-2,.31763E-3,0
STARLINK-1570,2020-055AJ,2023-11-28T01:39:04.982688,15.06409901,.0001537,53.0548,254.4008,67.8417,292.2735,0,U,46059,999,18300,.22451E-2,.33327E-3,0
STARLINK-1572,2020-055AK,2023-11-28T04:44:48.870240,15.06460189,.0001425,53.0550,253.8247,87.2977,272.8175,0,U,46060,999,18302,.23741E-2,.35316E-3,0
STARLINK-1573,2020-055AL,2023-11-28T04:32:28.555296,15.04820800,.0001434,53.0554,253.8479,95.2626,264.8526,0,U,46061,999,18302,.2781E-2,.39647E-3,0
STARLINK-1574,2020-055AM,2023-11-28T00:35:22.142976,15.06434172,.0001416,53.0535,254.5967,62.2375,297.8757,0,U,46062,999,18299,.2985E-2,.44503E-3,0
STARLINK-1577,2020-055AN,2023-11-28T02:05:36.313440,15.06408630,.0001545,53.0562,254.3195,113.4536,246.6616,0,U,46063,999,18300,.1679E-2,.24822E-3,0
STARLINK-1583,2020-055AP,2023-11-28T04:28:53.234400,15.06417988,.0001667,53.0556,253.8701,91.7045,268.4135,0,U,46064,999,18302,.57441E-3,.8289E-4,0
STARLINK-1525,2020-055AR,2023-11-28T02:50:43.106208,15.06409417,.0001837,53.0547,234.1724,70.0368,290.0819,0,U,46066,999,18328,.75347E-3,.10962E-3,0
STARLINK-1529,2020-055AS,2023-11-28T03:13:15.060576,15.76754170,.0001536,53.0477,222.8408,128.0278,232.0880,0,U,46067,999,18343,.56585E-4,.8626E-4,0
STARLINK-1532,2020-055AT,2023-11-28T00:43:22.402560,15.06403769,.0001945,53.0549,234.8769,118.8837,241.2347,0,U,46068,999,18326,.24619E-3,.3388E-4,0
STARLINK-1533,2020-055AU,2023-11-27T22:46:33.235392,15.06406206,.000172,53.0541,234.9359,124.6661,235.4490,0,U,46069,999,18326,.29355E-3,.4094E-4,0
STARLINK-1536,2020-055AV,2023-11-28T00:41:57.924960,15.06443758,.0001513,53.0542,234.5685,76.0973,284.0184,0,U,46070,999,18327,.16812E-2,.24878E-3,0
STARLINK-1538,2020-055AW,2023-11-28T02:45:24.637536,15.06427712,.0001623,53.0540,234.1899,120.7251,239.3898,0,U,46071,999,18328,.16388E-2,.24231E-3,0
STARLINK-1539,2020-055AX,2023-11-27T22:34:33.684960,15.06420390,.0002112,53.0535,234.9754,112.2639,247.8574,0,U,46072,999,18325,.34106E-3,.4805E-4,0
STARLINK-1542,2020-055AY,2023-11-28T00:32:42.582912,15.06437751,.0001515,53.0560,234.6053,89.4916,270.6247,0,U,46073,999,18327,.15576E-2,.23019E-3,0
STARLINK-1549,2020-055AZ,2023-11-28T00:11:28.237344,15.06415725,.0001596,53.0538,234.6739,67.8840,292.2318,0,U,46074,999,18327,.10827E-3,.1332E-4,0
STARLINK-1551,2020-055BA,2023-11-27T23:13:04.861632,15.06412845,.0002057,53.0548,234.8526,127.7526,232.3649,0,U,46075,999,18326,.32381E-3,.4546E-4,0
STARLINK-1552,2020-055BB,2023-11-27T23:50:14.155296,15.06416860,.0001657,53.0544,234.7388,110.5606,249.5561,0,U,46076,999,18326,.90041E-4,.106E-4,0
STARLINK-1559,2020-055BC,2023-11-28T00:59:13.982784,15.06410522,.0001718,53.0553,234.5247,117.2811,242.8354,0,U,46077,999,18327,.56378E-4,.558E-5,0
STARLINK-1563,2020-055BD,2023-11-28T00:27:22.934880,15.06489750,.0001996,53.0553,234.6238,85.6109,274.5108,0,U,46078,999,18327,.13908E-2,.20546E-3,0
STARLINK-1566,2020-055BE,2023-11-28T00:16:46.772544,15.06413198,.0001664,53.0534,234.6573,116.8723,243.2436,0,U,46079,999,18327,.97814E-4,.1176E-4,0
STARLINK-1568,2020-055BF,2023-11-27T23:17:02.770944,15.06402584,.0001186,53.0546,234.8323,105.8629,254.2491,0,U,46080,999,18326,.13027E-2,.19177E-3,0
STARLINK-1571,2020-055BG,2023-11-28T00:06:10.958400,15.06423455,.0001941,53.0551,234.6878,70.0736,290.0462,0,U,46081,999,18326,.17603E-2,.26052E-3,0
STARLINK-1578,2020-055BH,2023-11-27T23:02:28.993920,15.06441842,.0001478,53.0542,234.8874,87.8162,272.2997,0,U,46082,999,18326,.29329E-2,.43725E-3,0
STARLINK-1579,2020-055BJ,2023-11-27T23:55:33.883680,15.06409467,.000209,53.0552,234.7279,65.6287,294.4920,0,U,46083,999,18326,.33937E-3,.4778E-4,0
GLOBAL-8,2020-055BQ,2023-11-27T21:33:26.817984,15.63370776,.0003782,52.9863,194.5666,110.9292,249.2126,0,U,46089,999,19265,.87335E-3,.8224E-3,0
